start=new Date('2022-12-05T00:00:00.000Z').valueOf();
sats=[{"FILE":"3681310","GP_ID":"219526892","MEAN_ANOMALY":"302.2539","REV_AT_EPOCH":"10487","MEAN_MOTION":"15.06400019","TIME_SYSTEM":"UTC","INCLINATION":"53.0547","APOAPSIS":"548.335","EPOCH":"2022-12-04T12:29:20.277312","EPHEMERIS_TYPE":"0","OBJECT_NAME":"STARLINK-2055","DECAY_DATE":null,"TLE_LINE1":"1 47358U 21005K   22338.52037358  .00000533  00000-0  54701-4 0  9998","NORAD_CAT_ID":"47358","OBJECT_ID":"2021-005K","PERIOD":"95.592","ELEMENT_SET_NO":"999","COUNTRY_CODE":"US","PERIAPSIS":"546.092","ARG_OF_PERICENTER":"57.8607","RA_OF_ASC_NODE":"338.9899","BSTAR":"0.00005470100000","REF_FRAME":"TEME","CENTER_NAME":"EARTH","MEAN_MOTION_DOT":"0.00000533","SEMIMAJOR_AXIS":"6925.348","SITE":"AFETR","TLE_LINE2":"2 47358  53.0547 338.9899 0001619  57.8607 302.2539 15.06400019104872","MEAN_ELEMENT_THEORY":"SGP4","MEAN_MOTION_DDOT":"0.0000000000000","LAUNCH_DATE":"2021-01-20","OBJECT_TYPE":"PAYLOAD","ECCENTRICITY":"0.00016190","CLASSIFICATION_TYPE":"U","RCS_SIZE":"LARGE"},{"SITE":"AFETR","TLE_LINE2":"2 47359  53.0574   2.7429 0001731  55.4143 304.7010 15.06401994103617","SEMIMAJOR_AXIS":"6925.342","MEAN_MOTION_DOT":"0.00002538","CENTER_NAME":"EARTH","REF_FRAME":"TEME","BSTAR":"0.00018920000000","RA_OF_ASC_NODE":"2.7429","ARG_OF_PERICENTER":"55.4143","PERIAPSIS":"546.009","COUNTRY_CODE":"US","RCS_SIZE":"LARGE","CLASSIFICATION_TYPE":"U","ECCENTRICITY":"0.00017310","OBJECT_TYPE":"PAYLOAD","LAUNCH_DATE":"2021-01-20","MEAN_MOTION_DDOT":"0.0000000000000","MEAN_ELEMENT_THEORY":"SGP4","APOAPSIS":"548.406","EPOCH":"2022-12-04T19:08:07.677312","INCLINATION":"53.0574","TIME_SYSTEM":"UTC","MEAN_MOTION":"15.06401994","REV_AT_EPOCH":"10361","MEAN_ANOMALY":"304.7010","GP_ID":"219552249","FILE":"3681494","ELEMENT_SET_NO":"999","PERIOD":"95.592","OBJECT_ID":"2021-005L","NORAD_CAT_ID":"47359","TLE_LINE1":"1 47359U 21005L   22338.79731108  .00002538  00000-0  18920-3 0  9991","DECAY_DATE":null,"OBJECT_NAME":"STARLINK-2069","EPHEMERIS_TYPE":"0"},{"ECCENTRICITY":"0.00020200","CLASSIFICATION_TYPE":"U","RCS_SIZE":"LARGE","OBJECT_TYPE":"PAYLOAD","LAUNCH_DATE":"2021-01-20","MEAN_MOTION_DDOT":"0.0000000000000","MEAN_ELEMENT_THEORY":"SGP4","SEMIMAJOR_AXIS":"6925.367","TLE_LINE2":"2 47360  53.0566 334.2096 0002020  56.3167 303.8014 15.06393964103993","SITE":"AFETR","CENTER_NAME":"EARTH","MEAN_MOTION_DOT":"0.00000214","REF_FRAME":"TEME","BSTAR":"0.00003331000000","RA_OF_ASC_NODE":"334.2096","PERIAPSIS":"545.833","ARG_OF_PERICENTER":"56.3167","COUNTRY_CODE":"US","PERIOD":"95.593","ELEMENT_SET_NO":"999","OBJECT_ID":"2021-005M","NORAD_CAT_ID":"47360","DECAY_DATE":null,"TLE_LINE1":"1 47360U 21005M   22338.47202979  .00000214  00000-0  33310-4 0  9997","OBJECT_NAME":"STARLINK-2070","EPHEMERIS_TYPE":"0","TIME_SYSTEM":"UTC","INCLINATION":"53.0566","APOAPSIS":"548.631","EPOCH":"2022-12-04T11:19:43.373856","MEAN_MOTION":"15.06393964","MEAN_ANOMALY":"303.8014","REV_AT_EPOCH":"10399","GP_ID":"219520330","FILE":"3681207"},{"ECCENTRICITY":"0.00015190","CLASSIFICATION_TYPE":"U","RCS_SIZE":"LARGE","OBJECT_TYPE":"PAYLOAD","MEAN_MOTION_DDOT":"0.0000000000000","MEAN_ELEMENT_THEORY":"SGP4","LAUNCH_DATE":"2021-01-20","CENTER_NAME":"EARTH","MEAN_MOTION_DOT":"0.00001676","REF_FRAME":"TEME","SEMIMAJOR_AXIS":"6925.341","TLE_LINE2":"2 47361  53.0543 338.0660 0001519  60.8673 299.2468 15.06402381104909","SITE":"AFETR","PERIAPSIS":"546.154","ARG_OF_PERICENTER":"60.8673","COUNTRY_CODE":"US","BSTAR":"0.00013140000000","RA_OF_ASC_NODE":"338.0660","NORAD_CAT_ID":"47361","PERIOD":"95.592","ELEMENT_SET_NO":"999","OBJECT_ID":"2021-005N","EPHEMERIS_TYPE":"0","DECAY_DATE":null,"TLE_LINE1":"1 47361U 21005N   22338.72773314  .00001676  00000-0  13140-3 0  9993","OBJECT_NAME":"STARLINK-2071","MEAN_MOTION":"15.06402381","INCLINATION":"53.0543","TIME_SYSTEM":"UTC","EPOCH":"2022-12-04T17:27:56.143296","APOAPSIS":"548.258","GP_ID":"219526989","FILE":"3681310","MEAN_ANOMALY":"299.2468","REV_AT_EPOCH":"10490"},{"EPHEMERIS_TYPE":"0","TLE_LINE1":"1 47362U 21005P   22338.57385112 -.00000022  00000-0  17451-4 0  9997","DECAY_DATE":null,"OBJECT_NAME":"STARLINK-2076","NORAD_CAT_ID":"47362","ELEMENT_SET_NO":"999","PERIOD":"95.592","OBJECT_ID":"2021-005P","GP_ID":"219526999","FILE":"3681308","REV_AT_EPOCH":"10351","MEAN_ANOMALY":"289.0493","MEAN_MOTION":"15.06395601","EPOCH":"2022-12-04T13:46:20.736768","APOAPSIS":"548.325","INCLINATION":"53.0556","TIME_SYSTEM":"UTC","MEAN_ELEMENT_THEORY":"SGP4","MEAN_MOTION_DDOT":"0.0000000000000","LAUNCH_DATE":"2021-01-20","CLASSIFICATION_TYPE":"U","RCS_SIZE":"LARGE","ECCENTRICITY":"0.00015860","OBJECT_TYPE":"PAYLOAD","ARG_OF_PERICENTER":"71.0668","PERIAPSIS":"546.129","COUNTRY_CODE":"US","BSTAR":"0.00001745100000","RA_OF_ASC_NODE":"8.7539","MEAN_MOTION_DOT":"-0.00000022","CENTER_NAME":"EARTH","REF_FRAME":"TEME","SITE":"AFETR","TLE_LINE2":"2 47362  53.0556   8.7539 0001586  71.0668 289.0493 15.06395601103519","SEMIMAJOR_AXIS":"6925.362"},{"OBJECT_TYPE":"PAYLOAD","RCS_SIZE":"LARGE","CLASSIFICATION_TYPE":"U","ECCENTRICITY":"0.00018620","MEAN_MOTION_DDOT":"0.0000000000000","MEAN_ELEMENT_THEORY":"SGP4","LAUNCH_DATE":"2021-01-20","REF_FRAME":"TEME","MEAN_MOTION_DOT":"0.00002000","CENTER_NAME":"EARTH","TLE_LINE2":"2 47363  53.0558   8.7202 0001862  49.2456 310.8694 15.06399164103512","SITE":"AFETR","SEMIMAJOR_AXIS":"6925.351","COUNTRY_CODE":"US","ARG_OF_PERICENTER":"49.2456","PERIAPSIS":"545.927","RA_OF_ASC_NODE":"8.7202","BSTAR":"0.00015313000000","NORAD_CAT_ID":"47363","OBJECT_ID":"2021-005Q","ELEMENT_SET_NO":"999","PERIOD":"95.592","EPHEMERIS_TYPE":"0","OBJECT_NAME":"STARLINK-2077","TLE_LINE1":"1 47363U 21005Q   22338.57753927  .00002000  00000-0  15313-3 0  9992","DECAY_DATE":null,"MEAN_MOTION":"15.06399164","APOAPSIS":"548.506","EPOCH":"2022-12-04T13:51:39.392928","INCLINATION":"53.0558","TIME_SYSTEM":"UTC","FILE":"3681207","GP_ID":"219520080","REV_AT_EPOCH":"10351","MEAN_ANOMALY":"310.8694"},{"ECCENTRICITY":"0.00013670","CLASSIFICATION_TYPE":"U","RCS_SIZE":"LARGE","OBJECT_TYPE":"PAYLOAD","MEAN_MOTION_DDOT":"0.0000000000000","MEAN_ELEMENT_THEORY":"SGP4","LAUNCH_DATE":"2021-01-20","CENTER_NAME":"EARTH","MEAN_MOTION_DOT":"0.00001027","REF_FRAME":"TEME","SEMIMAJOR_AXIS":"6925.343","SITE":"AFETR","TLE_LINE2":"2 47366  53.0556   7.7326 0001367  79.7104 280.4039 15.06401695103548","PERIAPSIS":"546.262","ARG_OF_PERICENTER":"79.7104","COUNTRY_CODE":"US","BSTAR":"0.00008784500000","RA_OF_ASC_NODE":"7.7326","NORAD_CAT_ID":"47366","PERIOD":"95.592","ELEMENT_SET_NO":"999","OBJECT_ID":"2021-005T","EPHEMERIS_TYPE":"0","DECAY_DATE":null,"TLE_LINE1":"1 47366U 21005T   22338.80237734  .00001027  00000-0  87845-4 0  9992","OBJECT_NAME":"STARLINK-2081","MEAN_MOTION":"15.06401695","TIME_SYSTEM":"UTC","INCLINATION":"53.0556","EPOCH":"2022-12-04T19:15:25.402176","APOAPSIS":"548.155","GP_ID":"219551999","FILE":"3681494","MEAN_ANOMALY":"280.4039","REV_AT_EPOCH":"10354"},{"PERIOD":"95.592","ELEMENT_SET_NO":"999","OBJECT_ID":"2021-005U","NORAD_CAT_ID":"47367","DECAY_DATE":null,"TLE_LINE1":"1 47367U 21005U   22338.76182574  .00001899  00000-0  14635-3 0  9992","OBJECT_NAME":"STARLINK-2082","EPHEMERIS_TYPE":"0","TIME_SYSTEM":"UTC","INCLINATION":"53.0577","APOAPSIS":"548.329","EPOCH":"2022-12-04T18:17:01.743936","MEAN_MOTION":"15.06396284","MEAN_ANOMALY":"301.0592","REV_AT_EPOCH":"10354","GP_ID":"219527003","FILE":"3681308","ECCENTRICITY":"0.00015940","RCS_SIZE":"LARGE","CLASSIFICATION_TYPE":"U","OBJECT_TYPE":"PAYLOAD","LAUNCH_DATE":"2021-01-20","MEAN_MOTION_DDOT":"0.0000000000000","MEAN_ELEMENT_THEORY":"SGP4","SEMIMAJOR_AXIS":"6925.360","SITE":"AFETR","TLE_LINE2":"2 47367  53.0577   7.8929 0001594  59.0554 301.0592 15.06396284103545","CENTER_NAME":"EARTH","MEAN_MOTION_DOT":"0.00001899","REF_FRAME":"TEME","BSTAR":"0.00014635000000","RA_OF_ASC_NODE":"7.8929","PERIAPSIS":"546.121","ARG_OF_PERICENTER":"59.0554","COUNTRY_CODE":"US"},{"LAUNCH_DATE":"2021-01-20","MEAN_MOTION_DDOT":"0.0000000000000","MEAN_ELEMENT_THEORY":"SGP4","CLASSIFICATION_TYPE":"U","RCS_SIZE":"LARGE","ECCENTRICITY":"0.00016080","OBJECT_TYPE":"PAYLOAD","BSTAR":"0.00018981000000","RA_OF_ASC_NODE":"9.7221","ARG_OF_PERICENTER":"58.7624","PERIAPSIS":"546.116","COUNTRY_CODE":"US","TLE_LINE2":"2 47368  53.0568   9.7221 0001608  58.7624 301.3523 15.06394879103480","SITE":"AFETR","SEMIMAJOR_AXIS":"6925.364","MEAN_MOTION_DOT":"0.00002546","CENTER_NAME":"EARTH","REF_FRAME":"TEME","TLE_LINE1":"1 47368U 21005V   22338.35637741  .00002546  00000-0  18981-3 0  9997","DECAY_DATE":null,"OBJECT_NAME":"STARLINK-2084","EPHEMERIS_TYPE":"0","ELEMENT_SET_NO":"999","PERIOD":"95.592","OBJECT_ID":"2021-005V","NORAD_CAT_ID":"47368","REV_AT_EPOCH":"10348","MEAN_ANOMALY":"301.3523","GP_ID":"219519329","FILE":"3681207","APOAPSIS":"548.343","EPOCH":"2022-12-04T08:33:11.008224","TIME_SYSTEM":"UTC","INCLINATION":"53.0568","MEAN_MOTION":"15.06394879"},{"REV_AT_EPOCH":"10478","MEAN_ANOMALY":"303.4503","FILE":"3681410","GP_ID":"219529055","APOAPSIS":"548.343","EPOCH":"2022-12-04T18:13:01.334208","INCLINATION":"53.0556","TIME_SYSTEM":"UTC","MEAN_MOTION":"15.06401237","OBJECT_NAME":"STARLINK-2085","TLE_LINE1":"1 47369U 21005W   22338.75904322 -.00000448  00000-0 -11181-4 0  9991","DECAY_DATE":null,"EPHEMERIS_TYPE":"0","OBJECT_ID":"2021-005W","ELEMENT_SET_NO":"999","PERIOD":"95.592","NORAD_CAT_ID":"47369","RA_OF_ASC_NODE":"347.8953","BSTAR":"-0.00001118100000","COUNTRY_CODE":"US","ARG_OF_PERICENTER":"56.6643","PERIAPSIS":"546.076","TLE_LINE2":"2 47369  53.0556 347.8953 0001637  56.6643 303.4503 15.06401237104788","SITE":"AFETR","SEMIMAJOR_AXIS":"6925.345","REF_FRAME":"TEME","MEAN_MOTION_DOT":"-0.00000448","CENTER_NAME":"EARTH","LAUNCH_DATE":"2021-01-20","MEAN_ELEMENT_THEORY":"SGP4","MEAN_MOTION_DDOT":"0.0000000000000","OBJECT_TYPE":"PAYLOAD","CLASSIFICATION_TYPE":"U","RCS_SIZE":"LARGE","ECCENTRICITY":"0.00016370"}];
